{"fetched_at":"2026-03-28T16:33:49Z","count":6709,"tles":[{"name":"O3B FM11","line1":"1 40349U 14083B   26086.41678984 -.00000028  00000+0  00000+0 0  9994","line2":"2 40349   0.0578   0.2533 0003039 353.3632   6.3752  5.00115538205823","category":"Other"}]}